SIRION PATHFINDER-2     
1 43759U 18099B   26156.09085588  .00005474  00000+0  30112-3 0  9997
2 43759  97.4254 205.4362 0008178 352.2997   7.8108 15.14436976410795
CORVUS BC4              
1 43767U 18099K   26157.33812813  .00006077  00000+0  35320-3 0  9999
2 43767  97.4068 200.6366 0009294  47.3189 312.8823 15.12407984410768
M2 PATHFINDER           
1 45727U 20037E   26157.47304527  .00003381  00000+0  24487-3 0  9992
2 45727  97.8157 348.5839 0011491 183.0917 177.0240 15.04629336323883
NETSAT-4                
1 46504U 20068U   26157.49405539  .00022869  00000+0  51125-3 0  9998
2 46504  97.8611 164.8788 0005310  20.1399 340.0056 15.43504941314123
NETSAT-3                
1 46505U 20068V   26157.49206532  .00023704  00000+0  55136-3 0  9996
2 46505  97.8660 163.1065 0005633  37.6577 322.5063 15.42307434314037
NETSAT-1                
1 46506U 20068W   26157.24555156  .00017783  00000+0  53582-3 0  9992
2 46506  97.8751 157.3000 0006218  62.5752 297.6121 15.34378985313626
NETSAT-2                
1 46507U 20068X   26157.28953978  .00031297  00000+0  65210-3 0  9998
2 46507  97.8622 164.5133 0004870  56.0683 304.1027 15.45524771314059
GREENCUBE (IO-117)      
1 53109U 22080E   26152.46502029 -.00000003  00000+0  00000+0 0  9996
2 53109  70.1435 303.7143 0008869 293.3663  66.6064  6.42583280 91055
SITRO-AIS 5 (KATYS)     
1 57176U 23091L   26157.60119206  .00015752  00000+0  55660-3 0  9991
2 57176  97.5059 221.4018 0012594 136.3036 223.9203 15.29209643162724
SITRO-AIS 6 (CHIRKIN)   
1 57192U 23091AC  26157.62144875  .00012488  00000+0  49102-3 0  9998
2 57192  97.5067 220.5970 0012878 139.1385 221.0821 15.25731724162676
SITRO-AIS 8 (ANOKHIN)   
1 57193U 23091AD  26157.57124481  .00018311  00000+0  59606-3 0  9995
2 57193  97.5056 222.9174 0011793 132.4710 227.7530 15.31846603162827
SITRO-AIS 7 (FARTUSHNIY)
1 57194U 23091AE  26157.62245126  .00012330  00000+0  48934-3 0  9999
2 57194  97.5065 220.4285 0012708 139.9583 220.2594 15.25425256162661
SITRO-AIS 10 (BURDAEV)  
1 57199U 23091AK  26157.58202252  .00024662  00000+0  65565-3 0  9992
2 57199  97.5081 227.8741 0007956 111.4007 248.8087 15.38205962163137
SITRO-AIS 9 (SHCHUKIN)  
1 57201U 23091AM  26157.60509850  .00024051  00000+0  64938-3 0  9998
2 57201  97.5078 227.6357 0008179 111.7423 248.4693 15.37730226163124
SITRO-AIS 12 (SMIRENNIY)
1 57204U 23091AQ  26157.59771576  .00024723  00000+0  66123-3 0  9999
2 57204  97.5091 228.0889 0007845 106.6433 253.5673 15.38020321163146
SITRO-AIS 11 (SHEFFER)  
1 57208U 23091AU  26157.48394195  .00026088  00000+0  68835-3 0  9997
2 57208  97.5088 228.2122 0007709 106.9342 253.2748 15.38428782163142
SITRO-AIS 25            
1 59066U 24039R   26157.58920299  .00004236  00000+0  33034-3 0  9999
2 59066  95.3907 227.8101 0144868   5.9698 354.3211 14.93454887123143
SITRO-AIS 26            
1 59067U 24039S   26157.58913395  .00004370  00000+0  34228-3 0  9994
2 59067  95.3907 227.7099 0145222   6.5400 353.7675 14.93252070123138
SITRO-AIS 27            
1 59068U 24039T   26157.62933440  .00003668  00000+0  28521-3 0  9991
2 59068  95.3912 228.0044 0144279   5.0947 355.1706 14.93672134123161
SITRO-AIS 28            
1 59071U 24039U   26157.60701900  .00004539  00000+0  35211-3 0  9999
2 59071  95.3912 228.0357 0144109   5.0251 355.2381 14.93705741123163
GRBBETA                 
1 60237U 24128C   26157.53451242  .00005306  00000+0  36399-3 0  9998
2 60237  61.9899 253.6391 0042050 132.5031 227.9627 15.06565130104661
OOV-CUBE (TUBSAT-30)    
1 60240U 24128F   26157.54215999  .00003011  00000+0  23491-3 0  9990
2 60240  61.9952 262.6903 0045968 131.3951 229.1106 15.02727006104511
ROBUSTA-3A (MEDITERRAN*)
1 60243U 24128J   26157.48474085  .00010365  00000+0  60712-3 0  9996
2 60243  61.9861 246.0881 0042828 125.7968 234.7120 15.11542357104805
LASARSAT                
1 62391U 24247Q   26154.92379714  .00036882  00000+0  75515-3 0  9992
2 62391  44.9754 336.7002 0008047 258.6055 101.3931 15.45494859 81266
CROCUBE                 
1 62394U 24247T   26157.51961437  .00048242  00000+0  91869-3 0  9995
2 62394  44.9729 319.6326 0008120 275.1137  84.8826 15.47487318 81696
FORESAIL-1 PRIME        
1 66778U 25276DS  26157.45418651  .00006049  00000+0  29553-3 0  9996
2 66778  97.4199 230.9223 0003629 125.6883 234.4690 15.18604799 28771
KNACKSAT-2              
1 67683U 98067XZ  26157.26456592  .00064955  00000+0  81733-3 0  9993
2 67683  51.6302 349.3788 0010533 167.5745 192.5509 15.58973490 18571
